CCSDS_OMM_VERS = 2.0
CREATION_DATE  = 
ORIGINATOR     = 

OBJECT_NAME    = CZ-2C R/B
OBJECT_ID      = 2022-058K
CENTER_NAME    = EARTH
REF_FRAME      = TEME
TIME_SYSTEM    = UTC
MEAN_ELEMENT_THEORY = SGP/SGP4

EPOCH          = 2025-11-23T18:17:58.823232
MEAN_MOTION    = 15.47167878
ECCENTRICITY   = .004763
INCLINATION    = 50.1888
RA_OF_ASC_NODE = 140.2307
ARG_OF_PERICENTER = 120.1075
MEAN_ANOMALY   = 240.4627

EPHEMERIS_TYPE = 0
CLASSIFICATION_TYPE = U
NORAD_CAT_ID   = 52794
ELEMENT_SET_NO = 999
REV_AT_EPOCH   = 19369
BSTAR          = .57953E-3
MEAN_MOTION_DOT = .31004E-3
MEAN_MOTION_DDOT = 0

CCSDS_OMM_VERS = 2.0
CREATION_DATE  = 
ORIGINATOR     = 

OBJECT_NAME    = CZ-2C R/B
OBJECT_ID      = 2022-132E
CENTER_NAME    = EARTH
REF_FRAME      = TEME
TIME_SYSTEM    = UTC
MEAN_ELEMENT_THEORY = SGP/SGP4

EPOCH          = 2025-11-23T13:05:55.614048
MEAN_MOTION    = 15.53241476
ECCENTRICITY   = .0023825
INCLINATION    = 97.2946
RA_OF_ASC_NODE = 323.4018
ARG_OF_PERICENTER = 119.7475
MEAN_ANOMALY   = 240.6153

EPHEMERIS_TYPE = 0
CLASSIFICATION_TYPE = U
NORAD_CAT_ID   = 54039
ELEMENT_SET_NO = 999
REV_AT_EPOCH   = 17385
BSTAR          = .44576E-3
MEAN_MOTION_DOT = .28337E-3
MEAN_MOTION_DDOT = 0

CCSDS_OMM_VERS = 2.0
CREATION_DATE  = 
ORIGINATOR     = 

OBJECT_NAME    = GSLV R/B
OBJECT_ID      = 2022-138AN
CENTER_NAME    = EARTH
REF_FRAME      = TEME
TIME_SYSTEM    = UTC
MEAN_ELEMENT_THEORY = SGP/SGP4

EPOCH          = 2025-11-23T17:25:17.213952
MEAN_MOTION    = 14.95985962
ECCENTRICITY   = .0021802
INCLINATION    = 87.3843
RA_OF_ASC_NODE = 201.8389
ARG_OF_PERICENTER = 169.8513
MEAN_ANOMALY   = 190.3163

EPHEMERIS_TYPE = 0
CLASSIFICATION_TYPE = U
NORAD_CAT_ID   = 54149
ELEMENT_SET_NO = 999
REV_AT_EPOCH   = 16808
BSTAR          = .25812E-3
MEAN_MOTION_DOT = .2934E-4
MEAN_MOTION_DDOT = 0

CCSDS_OMM_VERS = 2.0
CREATION_DATE  = 
ORIGINATOR     = 

OBJECT_NAME    = XRISM
OBJECT_ID      = 2023-137A
CENTER_NAME    = EARTH
REF_FRAME      = TEME
TIME_SYSTEM    = UTC
MEAN_ELEMENT_THEORY = SGP/SGP4

EPOCH          = 2025-11-23T03:19:05.485152
MEAN_MOTION    = 15.10076512
ECCENTRICITY   = .00076238
INCLINATION    = 31.0022
RA_OF_ASC_NODE = 252.0758
ARG_OF_PERICENTER = 45.7029
MEAN_ANOMALY   = 314.4234

EPHEMERIS_TYPE = 0
CLASSIFICATION_TYPE = U
NORAD_CAT_ID   = 57800
ELEMENT_SET_NO = 999
REV_AT_EPOCH   = 12166
BSTAR          = .40120782E-3
MEAN_MOTION_DOT = .6793E-4
MEAN_MOTION_DDOT = 0

CCSDS_OMM_VERS = 2.0
CREATION_DATE  = 
ORIGINATOR     = 

OBJECT_NAME    = ACS3
OBJECT_ID      = 2024-077B
CENTER_NAME    = EARTH
REF_FRAME      = TEME
TIME_SYSTEM    = UTC
MEAN_ELEMENT_THEORY = SGP/SGP4

EPOCH          = 2025-11-23T18:02:11.823072
MEAN_MOTION    = 13.84191590
ECCENTRICITY   = .007256
INCLINATION    = 97.2890
RA_OF_ASC_NODE = 287.5857
ARG_OF_PERICENTER = 13.1652
MEAN_ANOMALY   = 347.1380

EPHEMERIS_TYPE = 0
CLASSIFICATION_TYPE = U
NORAD_CAT_ID   = 59588
ELEMENT_SET_NO = 999
REV_AT_EPOCH   = 7951
BSTAR          = .20176E-2
MEAN_MOTION_DOT = .2267E-4
MEAN_MOTION_DDOT = 0

