CZ-2C R/B               
1 52794U 22058K   25327.76248638  .00031004  00000+0  57953-3 0  9996
2 52794  50.1888 140.2307 0047630 120.1075 240.4627 15.47167878193699
CZ-2C R/B               
1 54039U 22132E   25327.54578257  .00028337  00000+0  44576-3 0  9994
2 54039  97.2946 323.4018 0023825 119.7475 240.6153 15.53241476173858
GSLV R/B                
1 54149U 22138AN  25327.72589368  .00002934  00000+0  25812-3 0  9994
2 54149  87.3843 201.8389 0021802 169.8513 190.3163 14.95985962168089
XRISM                   
1 57800U 23137A   25327.13825793  .00006793  00000+0  40121-3 0  9998
2 57800  31.0022 252.0758 0007623  45.7029 314.4234 15.10076512121669
ACS3                    
1 59588U 24077B   25327.75152573  .00002267  00000+0  20176-2 0  9993
2 59588  97.2890 287.5857 0072560  13.1652 347.1380 13.84191590 79511
